{"type": "FeatureCollection", "features": [ {"type": "Feature", "properties": {"norad_id": 35018, "name": "COSMOS 2251 DEB", "group": "cosmos-2251-debris", "lat": -34.19091282711628, "lon": 110.04786868912714, "alt_km": 910.5575108415696, "timestamp": "2025-12-05T20:43:02.449339+00:00", "meta": {"OBJECT_NAME": "COSMOS 2251 DEB", "OBJECT_ID": "1993-036AGF", "EPOCH": "2025-12-03T16:11:56.443776", "MEAN_MOTION": 13.67089178, "ECCENTRICITY": 0.03484341, "INCLINATION": 73.9753, "RA_OF_ASC_NODE": 124.9092, "ARG_OF_PERICENTER": 36.0656, "MEAN_ANOMALY": 326.3427, "EPHEMERIS_TYPE": 0, "CLASSIFICATION_TYPE": "U", "NORAD_CAT_ID": 35018, "ELEMENT_SET_NO": 999, "REV_AT_EPOCH": 83062, "BSTAR": 0.0010763143, "MEAN_MOTION_DOT": 1.35e-05, "MEAN_MOTION_DDOT": 0}, "tle": {"line1": "1 35018U 93036AGF 25337.67495884  .00001350  00000+0  10763-2 0  9996", "line2": "2 35018  73.9753 124.9092 0348434  36.0656 326.3427 13.67089178830628"}}, "geometry": {"type": "Point", "coordinates": [110.04786868912714, -34.19091282711628]}}, {"type": "Feature", "properties": {"norad_id": 35020, "name": "COSMOS 2251 DEB", "group": "cosmos-2251-debris", "lat": 58.366728292711606, "lon": 4.451136085980905, "alt_km": 733.5016252535634, "timestamp": "2025-12-05T20:43:02.449349+00:00", "meta": {"OBJECT_NAME": "COSMOS 2251 DEB", "OBJECT_ID": "1993-036AGH", "EPOCH": "2025-12-03T23:51:51.836544", "MEAN_MOTION": 14.62782261, "ECCENTRICITY": 0.00907882, "INCLINATION": 74.0466, "RA_OF_ASC_NODE": 215.6994, "ARG_OF_PERICENTER": 331.8391, "MEAN_ANOMALY": 27.7881, "EPHEMERIS_TYPE": 0, "CLASSIFICATION_TYPE": "U", "NORAD_CAT_ID": 35020, "ELEMENT_SET_NO": 999, "REV_AT_EPOCH": 88110, "BSTAR": 0.00032056499, "MEAN_MOTION_DOT": 1.702e-05, "MEAN_MOTION_DDOT": 0}, "tle": {"line1": "1 35020U 93036AGH 25337.99434996  .00001702  00000+0  32056-3 0  9992", "line2": "2 35020  74.0466 215.6994 0090788 331.8391  27.7881 14.62782261881105"}}, "geometry": {"type": "Point", "coordinates": [4.451136085980905, 58.366728292711606]}}, {"type": "Feature", "properties": {"norad_id": 35022, "name": "COSMOS 2251 DEB", "group": "cosmos-2251-debris", "lat": -36.488596701986516, "lon": 167.31465207264793, "alt_km": 671.4341461761232, "timestamp": "2025-12-05T20:43:02.449359+00:00", "meta": {"OBJECT_NAME": "COSMOS 2251 DEB", "OBJECT_ID": "1993-036AGK", "EPOCH": "2025-12-02T17:45:34.658208", "MEAN_MOTION": 14.60763876, "ECCENTRICITY": 0.00472905, "INCLINATION": 74.0262, "RA_OF_ASC_NODE": 341.0512, "ARG_OF_PERICENTER": 183.6288, "MEAN_ANOMALY": 176.4543, "EPHEMERIS_TYPE": 0, "CLASSIFICATION_TYPE": "U", "NORAD_CAT_ID": 35022, "ELEMENT_SET_NO": 999, "REV_AT_EPOCH": 58997, "BSTAR": 0.00056913021, "MEAN_MOTION_DOT": 2.791e-05, "MEAN_MOTION_DDOT": 0}, "tle": {"line1": "1 35022U 93036AGK 25336.73998447  .00002791  00000+0  56913-3 0  9998", "line2": "2 35022  74.0262 341.0512 0047290 183.6288 176.4543 14.60763876589975"}}, "geometry": {"type": "Point", "coordinates": [167.31465207264793, -36.488596701986516]}}, {"type": "Feature", "properties": {"norad_id": 35023, "name": "COSMOS 2251 DEB", "group": "cosmos-2251-debris", "lat": -73.9631388321808, "lon": 131.16023359274348, "alt_km": 570.9594159877443, "timestamp": "2025-12-05T20:43:02.449369+00:00", "meta": {"OBJECT_NAME": "COSMOS 2251 DEB", "OBJECT_ID": "1993-036AGL", "EPOCH": "2025-12-04T21:36:01.410048", "MEAN_MOTION": 14.9469955, "ECCENTRICITY": 0.0034324, "INCLINATION": 74.0383, "RA_OF_ASC_NODE": 228.3913, "ARG_OF_PERICENTER": 307.7916, "MEAN_ANOMALY": 180.1262, "EPHEMERIS_TYPE": 0, "CLASSIFICATION_TYPE": "U", "NORAD_CAT_ID": 35023, "ELEMENT_SET_NO": 999, "REV_AT_EPOCH": 88162, "BSTAR": 0.0032511, "MEAN_MOTION_DOT": 0.00035843, "MEAN_MOTION_DDOT": 0}, "tle": {"line1": "1 35023U 93036AGL 25338.90001632  .00035843  00000+0  32511-2 0  9992", "line2": "2 35023  74.0383 228.3913 0034324 307.7916 180.1262 14.94699550881624"}}, "geometry": {"type": "Point", "coordinates": [131.16023359274348, -73.9631388321808]}}, {"type": "Feature", "properties": {"norad_id": 35025, "name": "COSMOS 2251 DEB", "group": "cosmos-2251-debris", "lat": 6.05342219051788, "lon": -105.3504930296493, "alt_km": 713.9087891509344, "timestamp": "2025-12-05T20:43:02.449379+00:00", "meta": {"OBJECT_NAME": "COSMOS 2251 DEB", "OBJECT_ID": "1993-036AGN", "EPOCH": "2025-12-03T01:05:05.186688", "MEAN_MOTION": 14.72628151, "ECCENTRICITY": 0.00846667, "INCLINATION": 73.9382, "RA_OF_ASC_NODE": 81.9179, "ARG_OF_PERICENTER": 356.9044, "MEAN_ANOMALY": 3.1592, "EPHEMERIS_TYPE": 0, "CLASSIFICATION_TYPE": "U", "NORAD_CAT_ID": 35025, "ELEMENT_SET_NO": 999, "REV_AT_EPOCH": 88500, "BSTAR": 0.00048771001, "MEAN_MOTION_DOT": 3.252e-05, "MEAN_MOTION_DDOT": 0}, "tle": {"line1": "1 35025U 93036AGN 25337.04519892  .00003252  00000+0  48771-3 0  9995", "line2": "2 35025  73.9382  81.9179 0084666 356.9044   3.1592 14.72628151885003"}}, "geometry": {"type": "Point", "coordinates": [-105.3504930296493, 6.05342219051788]}}, {"type": "Feature", "properties": {"norad_id": 35026, "name": "COSMOS 2251 DEB", "group": "cosmos-2251-debris", "lat": 22.66379875434577, "lon": 144.925474552538, "alt_km": 691.8413195667254, "timestamp": "2025-12-05T20:43:02.449389+00:00", "meta": {"OBJECT_NAME": "COSMOS 2251 DEB", "OBJECT_ID": "1993-036AGP", "EPOCH": "2025-12-04T06:05:20.430816", "MEAN_MOTION": 14.53615447, "ECCENTRICITY": 0.008225, "INCLINATION": 74.0467, "RA_OF_ASC_NODE": 334.8227, "ARG_OF_PERICENTER": 90.6977, "MEAN_ANOMALY": 285.5237, "EPHEMERIS_TYPE": 0, "CLASSIFICATION_TYPE": "U", "NORAD_CAT_ID": 35026, "ELEMENT_SET_NO": 999, "REV_AT_EPOCH": 88020, "BSTAR": 0.00011976, "MEAN_MOTION_DOT": 4.94e-06, "MEAN_MOTION_DDOT": 0}, "tle": {"line1": "1 35026U 93036AGP 25338.25370869  .00000494  00000+0  11976-3 0  9991", "line2": "2 35026  74.0467 334.8227 0082250  90.6977 285.5237 14.53615447880200"}}, "geometry": {"type": "Point", "coordinates": [144.925474552538, 22.66379875434577]}}, {"type": "Feature", "properties": {"norad_id": 35028, "name": "COSMOS 2251 DEB", "group": "cosmos-2251-debris", "lat": -15.270653541046826, "lon": 108.51264370662936, "alt_km": 750.4107325085724, "timestamp": "2025-12-05T20:43:02.449399+00:00", "meta": {"OBJECT_NAME": "COSMOS 2251 DEB", "OBJECT_ID": "1993-036AGR", "EPOCH": "2025-12-03T07:31:08.250816", "MEAN_MOTION": 14.56553316, "ECCENTRICITY": 0.0082193, "INCLINATION": 74.0379, "RA_OF_ASC_NODE": 288.8678, "ARG_OF_PERICENTER": 65.1818, "MEAN_ANOMALY": 84.6032, "EPHEMERIS_TYPE": 0, "CLASSIFICATION_TYPE": "U", "NORAD_CAT_ID": 35028, "ELEMENT_SET_NO": 999, "REV_AT_EPOCH": 88148, "BSTAR": 0.00016513, "MEAN_MOTION_DOT": 7.39e-06, "MEAN_MOTION_DDOT": 0}, "tle": {"line1": "1 35028U 93036AGR 25337.31328994  .00000739  00000+0  16513-3 0  9995", "line2": "2 35028  74.0379 288.8678 0082193  65.1818  84.6032 14.56553316881480"}}, "geometry": {"type": "Point", "coordinates": [108.51264370662936, -15.270653541046826]}}, {"type": "Feature", "properties": {"norad_id": 35031, "name": "COSMOS 2251 DEB", "group": "cosmos-2251-debris", "lat": -17.790708289238758, "lon": 97.20205812204175, "alt_km": 781.725733748136, "timestamp": "2025-12-05T20:43:02.449409+00:00", "meta": {"OBJECT_NAME": "COSMOS 2251 DEB", "OBJECT_ID": "1993-036AGU", "EPOCH": "2025-12-04T03:44:01.634208", "MEAN_MOTION": 14.38277521, "ECCENTRICITY": 0.00184824, "INCLINATION": 74.0384, "RA_OF_ASC_NODE": 275.0774, "ARG_OF_PERICENTER": 10.3454, "MEAN_ANOMALY": 349.8076, "EPHEMERIS_TYPE": 0, "CLASSIFICATION_TYPE": "U", "NORAD_CAT_ID": 35031, "ELEMENT_SET_NO": 999, "REV_AT_EPOCH": 65160, "BSTAR": 0.00035811322, "MEAN_MOTION_DOT": 1.065e-05, "MEAN_MOTION_DDOT": 0}, "tle": {"line1": "1 35031U 93036AGU 25338.15557447  .00001065  00000+0  35811-3 0  9994", "line2": "2 35031  74.0384 275.0774 0018482  10.3454 349.8076 14.38277521651607"}}, "geometry": {"type": "Point", "coordinates": [97.20205812204175, -17.790708289238758]}}, {"type": "Feature", "properties": {"norad_id": 35032, "name": "COSMOS 2251 DEB", "group": "cosmos-2251-debris", "lat": -71.17565431465296, "lon": -37.67180083631107, "alt_km": 671.1135370346601, "timestamp": "2025-12-05T20:43:02.449419+00:00", "meta": {"OBJECT_NAME": "COSMOS 2251 DEB", "OBJECT_ID": "1993-036AGV", "EPOCH": "2025-12-03T03:23:36.974688", "MEAN_MOTION": 14.58586985, "ECCENTRICITY": 0.00689454, "INCLINATION": 73.8527, "RA_OF_ASC_NODE": 25.7636, "ARG_OF_PERICENTER": 238.5803, "MEAN_ANOMALY": 154.2077, "EPHEMERIS_TYPE": 0, "CLASSIFICATION_TYPE": "U", "NORAD_CAT_ID": 35032, "ELEMENT_SET_NO": 999, "REV_AT_EPOCH": 87534, "BSTAR": 0.0014295632, "MEAN_MOTION_DOT": 6.849e-05, "MEAN_MOTION_DDOT": 0}, "tle": {"line1": "1 35032U 93036AGV 25337.14140017  .00006849  00000+0  14296-2 0  9992", "line2": "2 35032  73.8527  25.7636 0068945 238.5803 154.2077 14.58586985875349"}}, "geometry": {"type": "Point", "coordinates": [-37.67180083631107, -71.17565431465296]}}, {"type": "Feature", "properties": {"norad_id": 35033, "name": "COSMOS 2251 DEB", "group": "cosmos-2251-debris", "lat": 42.46192092404137, "lon": -5.678156871026333, "alt_km": 728.5854945040037, "timestamp": "2025-12-05T20:43:02.449429+00:00", "meta": {"OBJECT_NAME": "COSMOS 2251 DEB", "OBJECT_ID": "1993-036AGW", "EPOCH": "2025-12-01T21:46:02.380800", "MEAN_MOTION": 14.50844438, "ECCENTRICITY": 0.00143855, "INCLINATION": 74.0263, "RA_OF_ASC_NODE": 196.9584, "ARG_OF_PERICENTER": 303.7279, "MEAN_ANOMALY": 56.251, "EPHEMERIS_TYPE": 0, "CLASSIFICATION_TYPE": "U", "NORAD_CAT_ID": 35033, "ELEMENT_SET_NO": 999, "REV_AT_EPOCH": 65770, "BSTAR": 0.00069994659, "MEAN_MOTION_DOT": 2.736e-05, "MEAN_MOTION_DDOT": 0}, "tle": {"line1": "1 35033U 93036AGW 25335.90697200  .00002736  00000+0  69995-3 0  9994", "line2": "2 35033  74.0263 196.9584 0014385 303.7279  56.2510 14.50844438657707"}}, "geometry": {"type": "Point", "coordinates": [-5.678156871026333, 42.46192092404137]}}]}